HULIANWANG DIGUI-97     
1 66413U 25258B   26064.19074617 -.00000045  00000+0  17085-3 0  9998
2 66413  50.0017 308.8841 0000414  97.2928 262.7991 13.29332373 15898
HULIANWANG DIGUI-98     
1 66414U 25258C   26064.18236694 -.00000035  00000+0  19123-3 0  9997
2 66414  50.0054 308.8825 0000463 108.7486 251.3436 13.29333994 15891
HULIANWANG DIGUI-99     
1 66415U 25258D   26064.22415965 -.00000055  00000+0  14928-3 0  9993
2 66415  50.0053 308.4334 0000352  90.6288 269.4624 13.29331485 15890
HULIANWANG DIGUI-100    
1 66416U 25258E   26064.17401872 -.00000042  00000+0  17754-3 0  9996
2 66416  50.0056 308.8413 0000332  87.9763 272.1147 13.29334500 15905
HULIANWANG DIGUI-101    
1 66417U 25258F   26064.09049942 -.00000048  00000+0  16323-3 0  9991
2 66417  50.0006 309.0091 0000362  82.7571 277.3343 13.29332658 15894
HULIANWANG DIGUI-102    
1 66418U 25258G   26064.21576692 -.00000055  00000+0  14837-3 0  9999
2 66418  50.0020 308.3501 0000370 103.5658 256.5256 13.29334565 15909
HULIANWANG DIGUI-103    
1 66419U 25258H   26064.13225510 -.00000049  00000+0  16099-3 0  9996
2 66419  50.0014 308.5685 0000304  84.3121 275.7786 13.29333562 15891
HULIANWANG DIGUI-104    
1 66420U 25258J   26064.19909533 -.00000051  00000+0  15732-3 0  9994
2 66420  50.0031 308.2779 0000394 107.5796 252.5119 13.29332956 15897
HULIANWANG DIGUI-105    
1 66915U 25285A   26064.27817574 -.00000087  00000+0  80204-4 0  9991
2 66915  50.0046 158.8854 0000053 333.9016  26.1853 13.29331626 12235
HULIANWANG DIGUI-106    
1 66916U 25285B   26063.21759307 -.00623778  00000+0 -14013+1 0  9994
2 66916  49.9908 162.6187 0006718  40.7121 319.4252 13.29373542 12094
HULIANWANG DIGUI-107    
1 66917U 25285C   26064.26147402 -.00000100  00000+0  51842-4 0  9990
2 66917  50.0022 158.7808 0000052 351.5134   8.5737 13.29331108 12235
HULIANWANG DIGUI-108    
1 66918U 25285D   26064.32829189 -.00000083  00000+0  88094-4 0  9996
2 66918  50.0043 158.4845 0000036  57.4403 302.6473 13.29331543 12249
HULIANWANG DIGUI-109    
1 66919U 25285E   26064.31993975 -.00000074  00000+0  10731-3 0  9993
2 66919  50.0066 158.4608 0000051 334.9455  25.1415 13.29331135 12250
HULIANWANG DIGUI-110    
1 66920U 25285F   26064.31159157 -.00000096  00000+0  60998-4 0  9996
2 66920  50.0100 158.4435 0000015  44.2896 315.7978 13.29330931 12243
HULIANWANG DIGUI-111    
1 66921U 25285G   26064.30323667 -.00000083  00000+0  88802-4 0  9995
2 66921  50.0117 158.4134 0000022 302.6675  57.4195 13.29330931 12243
HULIANWANG DIGUI-112    
1 66922U 25285H   26064.29488441 -.00000051  00000+0  15718-3 0  9996
2 66922  50.0078 158.3421 0000071 321.7871  38.2996 13.29331187 12242
