[{"OBJECT_NAME":"HULIANWANG DIGUI-97","OBJECT_ID":"2025-258B","EPOCH":"2026-03-05T04:34:40.469088","MEAN_MOTION":13.29332373,"ECCENTRICITY":4.143e-5,"INCLINATION":50.0017,"RA_OF_ASC_NODE":308.8841,"ARG_OF_PERICENTER":97.2928,"MEAN_ANOMALY":262.7991,"EPHEMERIS_TYPE":0,"CLASSIFICATION_TYPE":"U","NORAD_CAT_ID":66413,"ELEMENT_SET_NO":999,"REV_AT_EPOCH":1589,"BSTAR":0.00017084547,"MEAN_MOTION_DOT":-4.5e-7,"MEAN_MOTION_DDOT":0},{"OBJECT_NAME":"HULIANWANG DIGUI-98","OBJECT_ID":"2025-258C","EPOCH":"2026-03-05T04:22:36.503616","MEAN_MOTION":13.29333994,"ECCENTRICITY":4.639e-5,"INCLINATION":50.0054,"RA_OF_ASC_NODE":308.8825,"ARG_OF_PERICENTER":108.7486,"MEAN_ANOMALY":251.3436,"EPHEMERIS_TYPE":0,"CLASSIFICATION_TYPE":"U","NORAD_CAT_ID":66414,"ELEMENT_SET_NO":999,"REV_AT_EPOCH":1589,"BSTAR":0.00019123274,"MEAN_MOTION_DOT":-3.5e-7,"MEAN_MOTION_DDOT":0},{"OBJECT_NAME":"HULIANWANG DIGUI-99","OBJECT_ID":"2025-258D","EPOCH":"2026-03-05T05:22:47.393760","MEAN_MOTION":13.29331485,"ECCENTRICITY":3.527e-5,"INCLINATION":50.0053,"RA_OF_ASC_NODE":308.4334,"ARG_OF_PERICENTER":90.6288,"MEAN_ANOMALY":269.4624,"EPHEMERIS_TYPE":0,"CLASSIFICATION_TYPE":"U","NORAD_CAT_ID":66415,"ELEMENT_SET_NO":999,"REV_AT_EPOCH":1589,"BSTAR":0.00014927857,"MEAN_MOTION_DOT":-5.5e-7,"MEAN_MOTION_DDOT":0},{"OBJECT_NAME":"HULIANWANG DIGUI-100","OBJECT_ID":"2025-258E","EPOCH":"2026-03-05T04:10:35.217408","MEAN_MOTION":13.293345,"ECCENTRICITY":3.325e-5,"INCLINATION":50.0056,"RA_OF_ASC_NODE":308.8413,"ARG_OF_PERICENTER":87.9763,"MEAN_ANOMALY":272.1147,"EPHEMERIS_TYPE":0,"CLASSIFICATION_TYPE":"U","NORAD_CAT_ID":66416,"ELEMENT_SET_NO":999,"REV_AT_EPOCH":1590,"BSTAR":0.00017753967,"MEAN_MOTION_DOT":-4.2e-7,"MEAN_MOTION_DDOT":0},{"OBJECT_NAME":"HULIANWANG DIGUI-101","OBJECT_ID":"2025-258F","EPOCH":"2026-03-05T02:10:19.149888","MEAN_MOTION":13.29332658,"ECCENTRICITY":3.629e-5,"INCLINATION":50.0006,"RA_OF_ASC_NODE":309.0091,"ARG_OF_PERICENTER":82.7571,"MEAN_ANOMALY":277.3343,"EPHEMERIS_TYPE":0,"CLASSIFICATION_TYPE":"U","NORAD_CAT_ID":66417,"ELEMENT_SET_NO":999,"REV_AT_EPOCH":1589,"BSTAR":0.00016323102,"MEAN_MOTION_DOT":-4.8e-7,"MEAN_MOTION_DDOT":0},{"OBJECT_NAME":"HULIANWANG DIGUI-102","OBJECT_ID":"2025-258G","EPOCH":"2026-03-05T05:10:42.261888","MEAN_MOTION":13.29334565,"ECCENTRICITY":3.707e-5,"INCLINATION":50.002,"RA_OF_ASC_NODE":308.3501,"ARG_OF_PERICENTER":103.5658,"MEAN_ANOMALY":256.5256,"EPHEMERIS_TYPE":0,"CLASSIFICATION_TYPE":"U","NORAD_CAT_ID":66418,"ELEMENT_SET_NO":999,"REV_AT_EPOCH":1590,"BSTAR":0.00014837083,"MEAN_MOTION_DOT":-5.5e-7,"MEAN_MOTION_DDOT":0},{"OBJECT_NAME":"HULIANWANG DIGUI-103","OBJECT_ID":"2025-258H","EPOCH":"2026-03-05T03:10:26.840640","MEAN_MOTION":13.29333562,"ECCENTRICITY":3.049e-5,"INCLINATION":50.0014,"RA_OF_ASC_NODE":308.5685,"ARG_OF_PERICENTER":84.3121,"MEAN_ANOMALY":275.7786,"EPHEMERIS_TYPE":0,"CLASSIFICATION_TYPE":"U","NORAD_CAT_ID":66419,"ELEMENT_SET_NO":999,"REV_AT_EPOCH":1589,"BSTAR":0.00016099469,"MEAN_MOTION_DOT":-4.9e-7,"MEAN_MOTION_DDOT":0},{"OBJECT_NAME":"HULIANWANG DIGUI-104","OBJECT_ID":"2025-258J","EPOCH":"2026-03-05T04:46:41.836512","MEAN_MOTION":13.29332956,"ECCENTRICITY":3.948e-5,"INCLINATION":50.0031,"RA_OF_ASC_NODE":308.2779,"ARG_OF_PERICENTER":107.5796,"MEAN_ANOMALY":252.5119,"EPHEMERIS_TYPE":0,"CLASSIFICATION_TYPE":"U","NORAD_CAT_ID":66420,"ELEMENT_SET_NO":999,"REV_AT_EPOCH":1589,"BSTAR":0.00015732067,"MEAN_MOTION_DOT":-5.1e-7,"MEAN_MOTION_DDOT":0},{"OBJECT_NAME":"HULIANWANG DIGUI-105","OBJECT_ID":"2025-285A","EPOCH":"2026-03-05T06:40:34.383936","MEAN_MOTION":13.29331626,"ECCENTRICITY":5.37e-6,"INCLINATION":50.0046,"RA_OF_ASC_NODE":158.8854,"ARG_OF_PERICENTER":333.9016,"MEAN_ANOMALY":26.1853,"EPHEMERIS_TYPE":0,"CLASSIFICATION_TYPE":"U","NORAD_CAT_ID":66915,"ELEMENT_SET_NO":999,"REV_AT_EPOCH":1223,"BSTAR":8.0203941e-5,"MEAN_MOTION_DOT":-8.7e-7,"MEAN_MOTION_DDOT":0},{"OBJECT_NAME":"HULIANWANG DIGUI-106","OBJECT_ID":"2025-285B","EPOCH":"2026-03-04T05:13:20.041248","MEAN_MOTION":13.29373542,"ECCENTRICITY":0.00067182,"INCLINATION":49.9908,"RA_OF_ASC_NODE":162.6187,"ARG_OF_PERICENTER":40.7121,"MEAN_ANOMALY":319.4252,"EPHEMERIS_TYPE":0,"CLASSIFICATION_TYPE":"U","NORAD_CAT_ID":66916,"ELEMENT_SET_NO":999,"REV_AT_EPOCH":1209,"BSTAR":-1.4013495,"MEAN_MOTION_DOT":-0.00623778,"MEAN_MOTION_DDOT":0},{"OBJECT_NAME":"HULIANWANG DIGUI-107","OBJECT_ID":"2025-285C","EPOCH":"2026-03-05T06:16:31.355328","MEAN_MOTION":13.29331108,"ECCENTRICITY":5.21e-6,"INCLINATION":50.0022,"RA_OF_ASC_NODE":158.7808,"ARG_OF_PERICENTER":351.5134,"MEAN_ANOMALY":8.5737,"EPHEMERIS_TYPE":0,"CLASSIFICATION_TYPE":"U","NORAD_CAT_ID":66917,"ELEMENT_SET_NO":999,"REV_AT_EPOCH":1223,"BSTAR":5.1841961e-5,"MEAN_MOTION_DOT":-1.0e-6,"MEAN_MOTION_DDOT":0},{"OBJECT_NAME":"HULIANWANG DIGUI-108","OBJECT_ID":"2025-285D","EPOCH":"2026-03-05T07:52:44.419296","MEAN_MOTION":13.29331543,"ECCENTRICITY":3.64e-6,"INCLINATION":50.0043,"RA_OF_ASC_NODE":158.4845,"ARG_OF_PERICENTER":57.4403,"MEAN_ANOMALY":302.6473,"EPHEMERIS_TYPE":0,"CLASSIFICATION_TYPE":"U","NORAD_CAT_ID":66918,"ELEMENT_SET_NO":999,"REV_AT_EPOCH":1224,"BSTAR":8.8094473e-5,"MEAN_MOTION_DOT":-8.3e-7,"MEAN_MOTION_DDOT":0},{"OBJECT_NAME":"HULIANWANG DIGUI-109","OBJECT_ID":"2025-285E","EPOCH":"2026-03-05T07:40:42.794400","MEAN_MOTION":13.29331135,"ECCENTRICITY":5.18e-6,"INCLINATION":50.0066,"RA_OF_ASC_NODE":158.4608,"ARG_OF_PERICENTER":334.9455,"MEAN_ANOMALY":25.1415,"EPHEMERIS_TYPE":0,"CLASSIFICATION_TYPE":"U","NORAD_CAT_ID":66919,"ELEMENT_SET_NO":999,"REV_AT_EPOCH":1225,"BSTAR":0.00010730812,"MEAN_MOTION_DOT":-7.4e-7,"MEAN_MOTION_DDOT":0},{"OBJECT_NAME":"HULIANWANG DIGUI-110","OBJECT_ID":"2025-285F","EPOCH":"2026-03-05T07:28:41.511648","MEAN_MOTION":13.29330931,"ECCENTRICITY":1.53e-6,"INCLINATION":50.01,"RA_OF_ASC_NODE":158.4435,"ARG_OF_PERICENTER":44.2896,"MEAN_ANOMALY":315.7978,"EPHEMERIS_TYPE":0,"CLASSIFICATION_TYPE":"U","NORAD_CAT_ID":66920,"ELEMENT_SET_NO":999,"REV_AT_EPOCH":1224,"BSTAR":6.0998467e-5,"MEAN_MOTION_DOT":-9.6e-7,"MEAN_MOTION_DDOT":0},{"OBJECT_NAME":"HULIANWANG DIGUI-111","OBJECT_ID":"2025-285G","EPOCH":"2026-03-05T07:16:39.648288","MEAN_MOTION":13.29330931,"ECCENTRICITY":2.25e-6,"INCLINATION":50.0117,"RA_OF_ASC_NODE":158.4134,"ARG_OF_PERICENTER":302.6675,"MEAN_ANOMALY":57.4195,"EPHEMERIS_TYPE":0,"CLASSIFICATION_TYPE":"U","NORAD_CAT_ID":66921,"ELEMENT_SET_NO":999,"REV_AT_EPOCH":1224,"BSTAR":8.8802364e-5,"MEAN_MOTION_DOT":-8.3e-7,"MEAN_MOTION_DDOT":0},{"OBJECT_NAME":"HULIANWANG DIGUI-112","OBJECT_ID":"2025-285H","EPOCH":"2026-03-05T07:04:38.013024","MEAN_MOTION":13.29331187,"ECCENTRICITY":7.15e-6,"INCLINATION":50.0078,"RA_OF_ASC_NODE":158.3421,"ARG_OF_PERICENTER":321.7871,"MEAN_ANOMALY":38.2996,"EPHEMERIS_TYPE":0,"CLASSIFICATION_TYPE":"U","NORAD_CAT_ID":66922,"ELEMENT_SET_NO":999,"REV_AT_EPOCH":1224,"BSTAR":0.00015717526,"MEAN_MOTION_DOT":-5.1e-7,"MEAN_MOTION_DDOT":0}]
